IRIDIUM 112             
1 41925U 17003J   25225.52414603 -.00000006  00000+0 -93182-5 0  9998
2 41925  86.3963 216.8037 0002207  86.1873 273.9575 14.34217497449174
IRIDIUM 111             
1 41926U 17003K   25225.51145939  .00000052  00000+0  11496-4 0  9997
2 41926  86.3958 216.8724 0002210  91.9989 268.1460 14.34217679449157
IRIDIUM 113             
1 42803U 17039A   25225.63096012  .00000075  00000+0  19754-4 0  9991
2 42803  86.3933  90.7479 0002078  80.7130 279.4300 14.34218633427107
IRIDIUM 123             
1 42804U 17039B   25225.46313518  .00000049  00000+0  10336-4 0  9994
2 42804  86.3985 122.3027 0001915  91.3724 268.7691 14.34217746425849
IRIDIUM 120             
1 42805U 17039C   25225.62461985  .00000190  00000+0  60951-4 0  9990
2 42805  86.3923  90.5726 0002227  93.8899 266.2552 14.34217345427094
IRIDIUM 115             
1 42806U 17039D   25225.56696944  .00000280  00000+0  77269-4 0  9999
2 42806  86.4458  90.6835 0001825 104.8217 255.3186 14.43280058429894
IRIDIUM 118             
1 42807U 17039E   25225.42507691  .00000167  00000+0  52435-4 0  9997
2 42807  86.3985 122.3180 0002122  79.0517 281.0917 14.34219492425834
IRIDIUM 117             
1 42808U 17039F   25225.44410751 -.00000040  00000+0 -21303-4 0  9992
2 42808  86.3984 122.2703 0001807  86.1584 273.9818 14.34217279425860
